start=new Date('2023-03-05T00:00:00.000Z').valueOf();
sats=[{"MEAN_MOTION_DOT":"0.00026843","NORAD_CAT_ID":"49163","TLE_LINE1":"1 49163U 21082AK  23063.84157965  .00026843  00000-0  22448-2 0  9990","PERIAPSIS":"569.532","PERIOD":"96.103","DECAY_DATE":null,"EPHEMERIS_TYPE":"0","MEAN_ANOMALY":"89.1681","SEMIMAJOR_AXIS":"6949.977","CENTER_NAME":"EARTH","REF_FRAME":"TEME","OBJECT_TYPE":"PAYLOAD","TIME_SYSTEM":"UTC","MEAN_MOTION_DDOT":"0.0000000000000","OBJECT_ID":"2021-082AK","BSTAR":"0.00224480000000","ELEMENT_SET_NO":"999","GP_ID":"227508288","COUNTRY_CODE":"US","SITE":"AFWTR","ECCENTRICITY":"0.00033240","EPOCH":"2023-03-04T20:11:52.481760","OBJECT_NAME":"STARLINK-3088","MEAN_ELEMENT_THEORY":"SGP4","INCLINATION":"70.0007","REV_AT_EPOCH":"8273","TLE_LINE2":"2 49163  70.0007 170.0858 0003324 270.9097  89.1681 14.98399888 82734","CLASSIFICATION_TYPE":"U","RCS_SIZE":"LARGE","ARG_OF_PERICENTER":"270.9097","MEAN_MOTION":"14.98399888","FILE":"3851350","RA_OF_ASC_NODE":"170.0858","LAUNCH_DATE":"2021-09-14","APOAPSIS":"574.152"},{"NORAD_CAT_ID":"49164","TLE_LINE1":"1 49164U 21082AL  23063.69852354  .00000242  00000-0  28036-4 0  9994","PERIAPSIS":"569.980","MEAN_MOTION_DOT":"0.00000242","PERIOD":"96.107","DECAY_DATE":null,"EPHEMERIS_TYPE":"0","MEAN_ANOMALY":"89.6496","OBJECT_TYPE":"PAYLOAD","TIME_SYSTEM":"UTC","SEMIMAJOR_AXIS":"6950.169","CENTER_NAME":"EARTH","REF_FRAME":"TEME","BSTAR":"0.00002803600000","ELEMENT_SET_NO":"999","MEAN_MOTION_DDOT":"0.0000000000000","OBJECT_ID":"2021-082AL","OBJECT_NAME":"STARLINK-3106","GP_ID":"227508026","COUNTRY_CODE":"US","ECCENTRICITY":"0.00029560","SITE":"AFWTR","EPOCH":"2023-03-04T16:45:52.433856","INCLINATION":"70.0026","REV_AT_EPOCH":"8272","TLE_LINE2":"2 49164  70.0026 170.4439 0002956 270.4324  89.6496 14.98337646 82725","CLASSIFICATION_TYPE":"U","MEAN_ELEMENT_THEORY":"SGP4","RA_OF_ASC_NODE":"170.4439","RCS_SIZE":"LARGE","ARG_OF_PERICENTER":"270.4324","FILE":"3851350","MEAN_MOTION":"14.98337646","LAUNCH_DATE":"2021-09-14","APOAPSIS":"574.089"},{"APOAPSIS":"574.277","LAUNCH_DATE":"2021-09-14","FILE":"3851350","MEAN_MOTION":"14.98339474","ARG_OF_PERICENTER":"267.9421","RCS_SIZE":"LARGE","RA_OF_ASC_NODE":"190.0274","MEAN_ELEMENT_THEORY":"SGP4","CLASSIFICATION_TYPE":"U","TLE_LINE2":"2 49165  70.0013 190.0274 0003235 267.9421  92.1367 14.98339474 82285","REV_AT_EPOCH":"8228","INCLINATION":"70.0013","EPOCH":"2023-03-04T20:44:18.097440","SITE":"AFWTR","ECCENTRICITY":"0.00032350","COUNTRY_CODE":"US","GP_ID":"227506788","OBJECT_NAME":"STARLINK-3052","OBJECT_ID":"2021-082AM","MEAN_MOTION_DDOT":"0.0000000000000","ELEMENT_SET_NO":"999","BSTAR":"0.00243660000000","REF_FRAME":"TEME","CENTER_NAME":"EARTH","SEMIMAJOR_AXIS":"6950.164","TIME_SYSTEM":"UTC","OBJECT_TYPE":"PAYLOAD","MEAN_ANOMALY":"92.1367","DECAY_DATE":null,"EPHEMERIS_TYPE":"0","PERIOD":"96.106","MEAN_MOTION_DOT":"0.00029109","PERIAPSIS":"569.780","TLE_LINE1":"1 49165U 21082AM  23063.86409835  .00029109  00000-0  24366-2 0  9999","NORAD_CAT_ID":"49165"},{"RA_OF_ASC_NODE":"170.4356","FILE":"3851350","MEAN_MOTION":"14.98338612","RCS_SIZE":"LARGE","ARG_OF_PERICENTER":"253.2835","APOAPSIS":"573.627","LAUNCH_DATE":"2021-09-14","OBJECT_NAME":"STARLINK-3089","SITE":"AFWTR","ECCENTRICITY":"0.00022960","EPOCH":"2023-03-04T16:52:44.859072","GP_ID":"227507037","COUNTRY_CODE":"US","TLE_LINE2":"2 49166  70.0014 170.4356 0002296 253.2835 106.8072 14.98338612 82754","REV_AT_EPOCH":"8275","CLASSIFICATION_TYPE":"U","INCLINATION":"70.0014","MEAN_ELEMENT_THEORY":"SGP4","TIME_SYSTEM":"UTC","OBJECT_TYPE":"PAYLOAD","REF_FRAME":"TEME","SEMIMAJOR_AXIS":"6950.166","CENTER_NAME":"EARTH","ELEMENT_SET_NO":"999","BSTAR":"0.00003935800000","OBJECT_ID":"2021-082AN","MEAN_MOTION_DDOT":"0.0000000000000","PERIAPSIS":"570.436","TLE_LINE1":"1 49166U 21082AN  23063.70329698  .00000377  00000-0  39358-4 0  9996","NORAD_CAT_ID":"49166","MEAN_MOTION_DOT":"0.00000377","MEAN_ANOMALY":"106.8072","DECAY_DATE":null,"PERIOD":"96.106","EPHEMERIS_TYPE":"0"},{"MEAN_ANOMALY":"99.9039","DECAY_DATE":null,"EPHEMERIS_TYPE":"0","PERIOD":"96.107","PERIAPSIS":"570.333","TLE_LINE1":"1 49167U 21082AP  23063.79257883 -.00001120  00000-0 -86090-4 0  9996","NORAD_CAT_ID":"49167","MEAN_MOTION_DOT":"-0.00001120","ELEMENT_SET_NO":"999","BSTAR":"-0.00008609000000","OBJECT_ID":"2021-082AP","MEAN_MOTION_DDOT":"0.0000000000000","TIME_SYSTEM":"UTC","OBJECT_TYPE":"PAYLOAD","REF_FRAME":"TEME","SEMIMAJOR_AXIS":"6950.190","CENTER_NAME":"EARTH","TLE_LINE2":"2 49167  70.0018 190.2076 0002477 260.1841  99.9039 14.98331079 82275","REV_AT_EPOCH":"8227","CLASSIFICATION_TYPE":"U","INCLINATION":"70.0018","MEAN_ELEMENT_THEORY":"SGP4","OBJECT_NAME":"STARLINK-3054","SITE":"AFWTR","ECCENTRICITY":"0.00024770","EPOCH":"2023-03-04T19:01:18.810912","GP_ID":"227507789","COUNTRY_CODE":"US","APOAPSIS":"573.776","LAUNCH_DATE":"2021-09-14","RA_OF_ASC_NODE":"190.2076","FILE":"3851350","MEAN_MOTION":"14.98331079","RCS_SIZE":"LARGE","ARG_OF_PERICENTER":"260.1841"},{"MEAN_ANOMALY":"83.6310","DECAY_DATE":null,"PERIOD":"96.106","EPHEMERIS_TYPE":"0","MEAN_MOTION_DOT":"0.00000957","TLE_LINE1":"1 49168U 21082AQ  23063.68898801  .00000957  00000-0  87949-4 0  9995","PERIAPSIS":"570.013","NORAD_CAT_ID":"49168","OBJECT_ID":"2021-082AQ","MEAN_MOTION_DDOT":"0.0000000000000","ELEMENT_SET_NO":"999","BSTAR":"0.00008794900000","REF_FRAME":"TEME","CENTER_NAME":"EARTH","SEMIMAJOR_AXIS":"6950.168","TIME_SYSTEM":"UTC","OBJECT_TYPE":"PAYLOAD","MEAN_ELEMENT_THEORY":"SGP4","CLASSIFICATION_TYPE":"U","REV_AT_EPOCH":"8275","TLE_LINE2":"2 49168  70.0040 170.4687 0002907 276.4518  83.6310 14.98337986 82756","INCLINATION":"70.0040","EPOCH":"2023-03-04T16:32:08.564064","ECCENTRICITY":"0.00029070","SITE":"AFWTR","COUNTRY_CODE":"US","GP_ID":"227508526","OBJECT_NAME":"STARLINK-3101","APOAPSIS":"574.054","LAUNCH_DATE":"2021-09-14","MEAN_MOTION":"14.98337986","FILE":"3851350","ARG_OF_PERICENTER":"276.4518","RCS_SIZE":"LARGE","RA_OF_ASC_NODE":"170.4687"},{"APOAPSIS":"573.824","LAUNCH_DATE":"2021-09-14","FILE":"3851350","MEAN_MOTION":"14.98333196","ARG_OF_PERICENTER":"264.7254","RCS_SIZE":"LARGE","RA_OF_ASC_NODE":"170.4589","MEAN_ELEMENT_THEORY":"SGP4","CLASSIFICATION_TYPE":"U","TLE_LINE2":"2 49169  70.0012 170.4589 0002556 264.7254  95.3614 14.98333196 81557","REV_AT_EPOCH":"8155","INCLINATION":"70.0012","EPOCH":"2023-03-04T16:39:01.393632","SITE":"AFWTR","ECCENTRICITY":"0.00025560","COUNTRY_CODE":"US","GP_ID":"227507288","OBJECT_NAME":"STARLINK-3046","OBJECT_ID":"2021-082AR","MEAN_MOTION_DDOT":"0.0000000000000","ELEMENT_SET_NO":"999","BSTAR":"-0.00004512600000","REF_FRAME":"TEME","CENTER_NAME":"EARTH","SEMIMAJOR_AXIS":"6950.183","TIME_SYSTEM":"UTC","OBJECT_TYPE":"PAYLOAD","MEAN_ANOMALY":"95.3614","DECAY_DATE":null,"PERIOD":"96.107","EPHEMERIS_TYPE":"0","MEAN_MOTION_DOT":"-0.00000631","TLE_LINE1":"1 49169U 21082AR  23063.69376613 -.00000631  00000-0 -45126-4 0  9991","PERIAPSIS":"570.272","NORAD_CAT_ID":"49169"},{"EPHEMERIS_TYPE":"0","DECAY_DATE":null,"PERIOD":"96.107","MEAN_ANOMALY":"92.4642","MEAN_MOTION_DOT":"-0.00001121","NORAD_CAT_ID":"49170","TLE_LINE1":"1 49170U 21082AS  23063.76668788 -.00001121  00000-0 -86137-4 0  9990","PERIAPSIS":"569.866","MEAN_MOTION_DDOT":"0.0000000000000","OBJECT_ID":"2021-082AS","BSTAR":"-0.00008613700000","ELEMENT_SET_NO":"999","SEMIMAJOR_AXIS":"6950.201","CENTER_NAME":"EARTH","REF_FRAME":"TEME","OBJECT_TYPE":"PAYLOAD","TIME_SYSTEM":"UTC","MEAN_ELEMENT_THEORY":"SGP4","INCLINATION":"70.0000","REV_AT_EPOCH":"8107","TLE_LINE2":"2 49170  70.0000 190.2723 0003166 267.6155  92.4642 14.98327372 81071","CLASSIFICATION_TYPE":"U","GP_ID":"227507537","COUNTRY_CODE":"US","SITE":"AFWTR","ECCENTRICITY":"0.00031660","EPOCH":"2023-03-04T18:24:01.832832","OBJECT_NAME":"STARLINK-3074","LAUNCH_DATE":"2021-09-14","APOAPSIS":"574.266","RCS_SIZE":"LARGE","ARG_OF_PERICENTER":"267.6155","FILE":"3851350","MEAN_MOTION":"14.98327372","RA_OF_ASC_NODE":"190.2723"},{"FILE":"3851350","MEAN_MOTION":"14.98327619","ARG_OF_PERICENTER":"261.1362","RCS_SIZE":"LARGE","RA_OF_ASC_NODE":"190.3909","APOAPSIS":"573.804","LAUNCH_DATE":"2021-09-14","EPOCH":"2023-03-04T17:15:21.852288","SITE":"AFWTR","ECCENTRICITY":"0.00025020","COUNTRY_CODE":"US","GP_ID":"227508289","OBJECT_NAME":"STARLINK-3107","MEAN_ELEMENT_THEORY":"SGP4","CLASSIFICATION_TYPE":"U","REV_AT_EPOCH":"8222","TLE_LINE2":"2 49171  70.0048 190.3909 0002502 261.1362  98.9514 14.98327619 82224","INCLINATION":"70.0048","REF_FRAME":"TEME","CENTER_NAME":"EARTH","SEMIMAJOR_AXIS":"6950.200","TIME_SYSTEM":"UTC","OBJECT_TYPE":"PAYLOAD","OBJECT_ID":"2021-082AT","MEAN_MOTION_DDOT":"0.0000000000000","ELEMENT_SET_NO":"999","BSTAR":"-0.00005806000000","MEAN_MOTION_DOT":"-0.00000785","TLE_LINE1":"1 49171U 21082AT  23063.71900292 -.00000785  00000-0 -58060-4 0  9994","PERIAPSIS":"570.326","NORAD_CAT_ID":"49171","MEAN_ANOMALY":"98.9514","DECAY_DATE":null,"EPHEMERIS_TYPE":"0","PERIOD":"96.107"},{"MEAN_MOTION_DDOT":"0.0000000000000","OBJECT_ID":"2021-082AU","BSTAR":"-0.00004456100000","ELEMENT_SET_NO":"999","CENTER_NAME":"EARTH","SEMIMAJOR_AXIS":"6950.173","REF_FRAME":"TEME","OBJECT_TYPE":"PAYLOAD","TIME_SYSTEM":"UTC","PERIOD":"96.107","DECAY_DATE":null,"EPHEMERIS_TYPE":"0","MEAN_ANOMALY":"98.9783","MEAN_MOTION_DOT":"-0.00000625","NORAD_CAT_ID":"49172","PERIAPSIS":"570.366","TLE_LINE1":"1 49172U 21082AU  23063.66309669 -.00000625  00000-0 -44561-4 0  9994","LAUNCH_DATE":"2021-09-14","APOAPSIS":"573.710","ARG_OF_PERICENTER":"261.1104","RCS_SIZE":"LARGE","FILE":"3851350","MEAN_MOTION":"14.98336433","RA_OF_ASC_NODE":"170.5331","MEAN_ELEMENT_THEORY":"SGP4","INCLINATION":"70.0010","CLASSIFICATION_TYPE":"U","TLE_LINE2":"2 49172  70.0010 170.5331 0002406 261.1104  98.9783 14.98336433 81546","REV_AT_EPOCH":"8154","COUNTRY_CODE":"US","GP_ID":"227508027","EPOCH":"2023-03-04T15:54:51.554016","ECCENTRICITY":"0.00024060","SITE":"AFWTR","OBJECT_NAME":"STARLINK-3091"}];
